GLOBALSTAR M084         
1 38040U 11080A   24311.58414831 -.00000057  00000+0  26180-3 0  9992
2 38040  52.0034   6.1591 0000106 126.2701  24.8583 12.62269995594558
GLOBALSTAR M080         
1 38041U 11080B   24311.55709566 -.00000055  00000+0  27393-3 0  9997
2 38041  52.0088   7.7710 0000332 186.0174 321.6255 12.62268012594673
GLOBALSTAR M082         
1 38042U 11080C   24311.49485295 -.00000069  00000+0  19595-3 0  9991
2 38042  52.0088 323.3836 0000847  67.2158  97.6976 12.62269110595371
GLOBALSTAR M092         
1 38043U 11080D   24311.59350806 -.00000069  00000+0  19148-3 0  9996
2 38043  52.0102  53.4440 0000571 104.0287 269.5491 12.62269060593844
GLOBALSTAR M090         
1 38044U 11080E   24311.43819581 -.00000063  00000+0  22637-3 0  9991
2 38044  51.9894 317.6505 0000605  75.6492  72.0753 12.62270245595484
GLOBALSTAR M097         
1 39072U 13005A   24311.45875456 -.00000067  00000+0  20619-3 0  9999
2 39072  52.0046 232.4424 0000834  83.0931 277.0030 12.62266804542681
GLOBALSTAR M093         
1 39073U 13005B   24311.19445679 -.00000043  00000+0  34112-3 0  9998
2 39073  51.9808 226.9047 0000984  81.1604 278.9373 12.62267098542605
